NORAD_CAT_ID,OBJECT_NAME,OBJECT_TYPE,EPOCH,MEAN_MOTION,ECCENTRICITY,INCLINATION,RA_OF_ASC_NODE,ARG_OF_PERICENTER,MEAN_ANOMALY,BSTAR,MEAN_MOTION_DOT,MEAN_MOTION_DDOT,TLE_LINE0,TLE_LINE1,TLE_LINE2,SEMIMAJOR_AXIS,PERIOD,APOGEE,PERIGEE,DECAYED
51883.0,STARLINK-3576,PAYLOAD,2023-11-07 11:31:13,15.08795329,0.000153,53.217,229.5099,81.8075,278.3091,0.0010992,0.00017228,0.0,0 STARLINK-3576,1 51883U 22022AH  23311.48002129  .00017228  00000-0  10992-2 0  9992,2 51883  53.2170 229.5099 0001530  81.8075 278.3091 15.08795329 94438,6918.017,95.44,540.94,538.823,0.0
51883.0,STARLINK-3576,PAYLOAD,2023-11-08 03:25:05,15.08856261,0.0001336,53.2164,226.5376,92.2858,267.8287,0.0023403,0.00037171,0.0,0 STARLINK-3576,1 51883U 22022AH  23312.14242409  .00037171  00000-0  23403-2 0  9993,2 51883  53.2164 226.5376 0001336  92.2858 267.8287 15.08856261 94539,6917.831,95.437,540.62,538.771,0.0
51883.0,STARLINK-3576,PAYLOAD,2023-11-08 22:29:43,15.08851773,0.0001498,53.2166,222.9689,66.9377,293.1773,0.0014727,0.00023235,0.0,0 STARLINK-3576,1 51883U 22022AH  23312.93730798  .00023235  00000-0  14727-2 0  9998,2 51883  53.2166 222.9689 0001498  66.9377 293.1773 15.08851773 94659,6917.844,95.437,540.746,538.673,0.0
51883.0,STARLINK-3576,PAYLOAD,2023-11-09 01:40:29,15.08850986,0.0001312,53.2162,222.3742,88.5692,271.545,0.0011912,0.00018726,0.0,0 STARLINK-3576,1 51883U 22022AH  23313.06978655  .00018726  00000-0  11912-2 0  9991,2 51883  53.2162 222.3742 0001312  88.5692 271.5450 15.08850986 94673,6917.847,95.437,540.619,538.804,0.0
51883.0,STARLINK-3576,PAYLOAD,2023-11-09 22:20:30,15.08838167,0.0001304,53.2166,218.5117,126.4965,233.6147,0.00078986,0.00012304,0.0,0 STARLINK-3576,1 51883U 22022AH  23313.93091021  .00012304  00000-0  78986-3 0  9991,2 51883  53.2166 218.5117 0001304 126.4965 233.6147 15.08838167 94800,6917.886,95.438,540.653,538.849,0.0
51883.0,STARLINK-3576,PAYLOAD,2023-11-10 01:31:17,15.08843139,0.00014,53.2162,217.9144,95.5967,264.5185,0.00092826,0.00014517,0.0,0 STARLINK-3576,1 51883U 22022AH  23314.06339160  .00014517  00000-0  92826-3 0  9992,2 51883  53.2162 217.9144 0001400  95.5967 264.5185 15.08843139 94826,6917.871,95.437,540.704,538.767,0.0
51883.0,STARLINK-3576,PAYLOAD,2023-11-11 02:57:27,15.0884575,0.0001552,53.2163,213.1567,90.8045,269.3125,0.00096541,0.00015112,0.0,0 STARLINK-3576,1 51883U 22022AH  23315.12323487  .00015112  00000-0  96541-3 0  9995,2 51883  53.2163 213.1567 0001552  90.8045 269.3125 15.08845750 94982,6917.863,95.437,540.801,538.654,0.0
51883.0,STARLINK-3576,PAYLOAD,2023-11-11 10:54:23,15.08843578,0.0001552,53.2169,211.6672,92.603,267.514,0.00025488,3.771e-05,0.0,0 STARLINK-3576,1 51883U 22022AH  23315.45443409  .00003771  00000-0  25488-3 0  9998,2 51883  53.2169 211.6672 0001552  92.6030 267.5140 15.08843578 95032,6917.869,95.437,540.808,538.661,0.0
51883.0,STARLINK-3576,PAYLOAD,2023-11-11 20:26:42,15.08837859,0.0001665,53.2184,209.8822,110.7918,249.3252,0.00070833,0.00011002,0.0,0 STARLINK-3576,1 51883U 22022AH  23315.85187852  .00011002  00000-0  70833-3 0  9999,2 51883  53.2184 209.8822 0001665 110.7918 249.3252 15.08837859 95090,6917.887,95.438,540.904,538.6,0.0
51883.0,STARLINK-3576,PAYLOAD,2023-11-11 22:02:05,15.08842739,0.0001509,53.2164,209.5879,97.246,262.8704,0.00020117,2.915e-05,0.0,0 STARLINK-3576,1 51883U 22022AH  23315.91811394  .00002915  00000-0  20117-3 0  9994,2 51883  53.2164 209.5879 0001509  97.2460 262.8704 15.08842739 95102,6917.872,95.437,540.781,538.693,0.0
51883.0,STARLINK-3576,PAYLOAD,2023-11-12 02:48:14,15.08848445,0.0001524,53.2164,208.6958,96.9521,263.1644,0.00026495,3.932e-05,0.0,0 STARLINK-3576,1 51883U 22022AH  23316.11683109  .00003932  00000-0  26495-3 0  9993,2 51883  53.2164 208.6958 0001524  96.9521 263.1644 15.08848445 95131,6917.855,95.437,540.774,538.665,0.0
51883.0,STARLINK-3576,PAYLOAD,2023-11-12 21:52:51,15.08845621,0.0001661,53.217,205.1249,100.8168,259.3011,0.00013292,1.828e-05,0.0,0 STARLINK-3576,1 51883U 22022AH  23316.91171244  .00001828  00000-0  13292-3 0  9996,2 51883  53.2170 205.1249 0001661 100.8168 259.3011 15.08845621 95258,6917.863,95.437,540.877,538.579,0.0
51883.0,STARLINK-3576,PAYLOAD,2023-11-12 23:28:15,15.0884622,0.0001668,53.2169,204.8275,100.8822,259.2358,0.00013255,1.822e-05,0.0,0 STARLINK-3576,1 51883U 22022AH  23316.97795196  .00001822  00000-0  13255-3 0  9993,2 51883  53.2169 204.8275 0001668 100.8822 259.2358 15.08846220 95265,6917.861,95.437,540.88,538.572,0.0
51883.0,STARLINK-3576,PAYLOAD,2023-11-14 08:51:20,15.08842439,0.0001653,53.2161,198.5854,83.9501,276.1679,6.5534e-05,7.55e-06,0.0,0 STARLINK-3576,1 51883U 22022AH  23318.36899295  .00000755  00000-0  65534-4 0  9995,2 51883  53.2161 198.5854 0001653  83.9501 276.1679 15.08842439 95473,6917.873,95.437,540.881,538.594,0.0
51883.0,STARLINK-3576,PAYLOAD,2023-11-14 16:48:17,15.08828816,0.000202,53.2183,197.1022,95.973,264.1493,0.00029249,4.369e-05,0.0,0 STARLINK-3576,1 51883U 22022AH  23318.70020116  .00004369  00000-0  29249-3 0  9998,2 51883  53.2183 197.1022 0002020  95.9730 264.1493 15.08828816 95525,6917.915,95.438,541.177,538.382,0.0
51883.0,STARLINK-3576,PAYLOAD,2023-11-14 23:09:51,15.0880672,0.0002119,53.2184,195.9109,97.7185,262.4047,0.0008316,0.0001296,0.0,0 STARLINK-3576,1 51883U 22022AH  23318.96517370  .00012960  00000-0  83160-3 0  9997,2 51883  53.2184 195.9109 0002119  97.7185 262.4047 15.08806720 95561,6917.982,95.44,541.313,538.381,0.0
51883.0,STARLINK-3576,PAYLOAD,2023-11-15 00:45:12,15.08833733,0.0001786,53.2172,195.615,99.766,260.3534,-3.5809e-05,-8.58e-06,0.0,0 STARLINK-3576,1 51883U 22022AH  23319.03139873 -.00000858  00000-0 -35809-4 0  9997,2 51883  53.2172 195.6150 0001786  99.7660 260.3534 15.08833733 95573,6917.9,95.438,541.0,538.529,0.0
51883.0,STARLINK-3576,PAYLOAD,2023-11-16 00:35:59,15.08839604,0.0001579,53.2186,191.1537,97.4892,262.628,0.00022593,3.309e-05,0.0,0 STARLINK-3576,1 51883U 22022AH  23320.02499514  .00003309  00000-0  22593-3 0  9996,2 51883  53.2186 191.1537 0001579  97.4892 262.6280 15.08839604 95723,6917.882,95.438,540.839,538.654,0.0
51883.0,STARLINK-3576,PAYLOAD,2023-11-16 14:54:28,15.08838314,0.0001628,53.217,188.478,99.5805,260.5371,0.00013019,1.784e-05,0.0,0 STARLINK-3576,1 51883U 22022AH  23320.62115778  .00001784  00000-0  13019-3 0  9997,2 51883  53.2170 188.4780 0001628  99.5805 260.5371 15.08838314 95812,6917.886,95.438,540.877,538.624,0.0
51883.0,STARLINK-3576,PAYLOAD,2023-11-17 00:26:46,15.08837822,0.0001451,53.2148,186.6907,90.6293,269.4866,8.081e-05,9.98e-06,0.0,0 STARLINK-3576,1 51883U 22022AH  23321.01859943  .00000998  00000-0  80810-4 0  9990,2 51883  53.2148 186.6907 0001451  90.6293 269.4866 15.08837822 95871,6917.887,95.438,540.756,538.748,0.0
51883.0,STARLINK-3576,PAYLOAD,2023-11-17 22:42:10,15.08850108,0.0001397,53.2182,182.5294,77.0102,283.1046,-1.7633e-05,-5.69e-06,0.0,0 STARLINK-3576,1 51883U 22022AH  23321.94595786 -.00000569  00000-0 -17633-4 0  9993,2 51883  53.2182 182.5294 0001397  77.0102 283.1046 15.08850108 96012,6917.849,95.437,540.681,538.748,0.0
51883.0,STARLINK-3576,PAYLOAD,2023-11-18 00:17:33,15.08856005,0.0001411,53.2185,182.2322,77.176,282.9389,-8.2217e-05,-1.597e-05,0.0,0 STARLINK-3576,1 51883U 22022AH  23322.01219543 -.00001597  00000-0 -82217-4 0  9998,2 51883  53.2185 182.2322 0001411  77.1760 282.9389 15.08856005 96022,6917.831,95.437,540.673,538.72,0.0
51883.0,STARLINK-3576,PAYLOAD,2023-11-18 14:36:02,15.08832369,0.0001463,53.2174,179.556,79.1072,281.0085,0.00023598,3.469e-05,0.0,0 STARLINK-3576,1 51883U 22022AH  23322.60836261  .00003469  00000-0  23598-3 0  9999,2 51883  53.2174 179.5560 0001463  79.1072 281.0085 15.08832369 96118,6917.904,95.438,540.781,538.757,0.0
51883.0,STARLINK-3576,PAYLOAD,2023-11-18 20:57:34,15.08840423,0.0001258,53.2162,178.3653,89.816,270.2976,9.9098e-05,1.29e-05,0.0,0 STARLINK-3576,1 51883U 22022AH  23322.87331930  .00001290  00000-0  99098-4 0  9990,2 51883  53.2162 178.3653 0001258  89.8160 270.2976 15.08840423 96156,6917.879,95.438,540.614,538.874,0.0
51883.0,STARLINK-3576,PAYLOAD,2023-11-19 00:08:20,15.08842069,0.0001478,53.2166,177.7715,81.3511,278.7648,0.00011309,1.512e-05,0.0,0 STARLINK-3576,1 51883U 22022AH  23323.00579837  .00001512  00000-0  11309-3 0  9991,2 51883  53.2166 177.7715 0001478  81.3511 278.7648 15.08842069 96172,6917.874,95.437,540.762,538.717,0.0
51883.0,STARLINK-3576,PAYLOAD,2023-11-19 08:05:16,15.08843219,0.0001338,53.2152,176.2828,93.662,266.4525,0.00011882,1.604e-05,0.0,0 STARLINK-3576,1 51883U 22022AH  23323.33699752  .00001604  00000-0  11882-3 0  9994,2 51883  53.2152 176.2828 0001338  93.6620 266.4525 15.08843219 96220,6917.871,95.437,540.661,538.81,0.0
51883.0,STARLINK-3576,PAYLOAD,2023-11-19 20:48:21,15.08847927,0.0001423,53.2162,173.9037,94.3216,265.7938,3.5331e-05,2.74e-06,0.0,0 STARLINK-3576,1 51883U 22022AH  23323.86691590  .00000274  00000-0  35331-4 0  9992,2 51883  53.2162 173.9037 0001423  94.3216 265.7938 15.08847927 96300,6917.856,95.437,540.706,538.737,0.0
51883.0,STARLINK-3576,PAYLOAD,2023-11-19 23:59:07,15.08837804,0.0001549,53.2162,173.3091,94.8487,265.2682,0.00017354,2.475e-05,0.0,0 STARLINK-3576,1 51883U 22022AH  23323.99939780  .00002475  00000-0  17354-3 0  9991,2 51883  53.2162 173.3091 0001549  94.8487 265.2682 15.08837804 96324,6917.887,95.438,540.824,538.681,0.0
51883.0,STARLINK-3576,PAYLOAD,2023-11-20 20:39:08,15.0884214,0.0001477,53.2158,169.443,93.2687,266.8474,5.4919e-05,5.86e-06,0.0,0 STARLINK-3576,1 51883U 22022AH  23324.86051769  .00000586  00000-0  54919-4 0  9990,2 51883  53.2158 169.4430 0001477  93.2687 266.8474 15.08842140 96456,6917.874,95.437,540.761,538.717,0.0
51883.0,STARLINK-3576,PAYLOAD,2023-11-21 14:08:23,15.08835408,0.0001504,53.2165,166.1723,96.5179,263.5985,-9.6021e-06,-4.41e-06,0.0,0 STARLINK-3576,1 51883U 22022AH  23325.58916471 -.00000441  00000-0 -96021-5 0  9993,2 51883  53.2165 166.1723 0001504  96.5179 263.5985 15.08835408 96568,6917.894,95.438,540.8,538.719,0.0
